IRIDIUM 921 [-]         
1 24873U 97034E   24112.62926395  .00046344  00000+0  13417-2 0  9997
2 24873  86.3801 316.0494 0005967 102.8713 257.3206 15.35383446466494
IRIDIUM 26 [-]          
1 24903U 97043A   24112.90038101  .00001528  00000+0  51661-3 0  9990
2 24903  86.3904 287.3873 0002277  86.9827 273.1630 14.36296528396259
IRIDIUM 22 [-]          
1 24907U 97043E   24112.98225853  .00001454  00000+0  50223-3 0  9995
2 24907  86.3908 290.5479 0002094  91.1368 269.0068 14.35188233396330
DUMMY MASS 1 [-]        
1 24925U 97048A   24112.63561956  .00001238  00000+0  13809-3 0  9998
2 24925  86.3341 330.1357 0006356 180.0009 180.1216 14.86147951442509
DUMMY MASS 2 [-]        
1 24926U 97048B   24112.66305624  .00001246  00000+0  13980-3 0  9999
2 24926  86.3343 331.6556 0006649 193.8202 166.2841 14.85906977442296
IRIDIUM 29 [-]          
1 24944U 97051A   24112.93301239  .00001231  00000+0  42019-3 0  9990
2 24944  86.3935 320.5064 0002070  94.8476 265.2957 14.35643598392813
IRIDIUM 33 [-]          
1 24946U 97051C   24113.11660637  .00000857  00000+0  29818-3 0  9998
2 24946  86.3849 319.6844 0008656  26.8663 333.2979 14.34319099392380
IRIDIUM 28 [-]          
1 24948U 97051E   24113.11346366  .00001244  00000+0  41680-3 0  9992
2 24948  86.3936 318.1868 0002379  79.2184 280.9281 14.36593251393443
